[{"OBJECT_NAME":"TRANSPORTER-10 OBJECT AD","OBJECT_ID":"2024-043AD","EPOCH":"2026-03-09T20:38:52.416960","MEAN_MOTION":15.34189901,"ECCENTRICITY":0.00089841,"INCLINATION":97.547,"RA_OF_ASC_NODE":207.3753,"ARG_OF_PERICENTER":221.4908,"MEAN_ANOMALY":138.5653,"EPHEMERIS_TYPE":0,"CLASSIFICATION_TYPE":"U","NORAD_CAT_ID":59125,"ELEMENT_SET_NO":999,"REV_AT_EPOCH":11202,"BSTAR":0.00036310552,"MEAN_MOTION_DOT":0.00011954,"MEAN_MOTION_DDOT":0},{"OBJECT_NAME":"STARLINK-35095","OBJECT_ID":"2025-192X","EPOCH":"2026-03-09T17:18:40.492800","MEAN_MOTION":15.30192772,"ECCENTRICITY":0.00015335,"INCLINATION":53.1604,"RA_OF_ASC_NODE":232.5852,"ARG_OF_PERICENTER":53.4734,"MEAN_ANOMALY":306.6408,"EPHEMERIS_TYPE":0,"CLASSIFICATION_TYPE":"U","NORAD_CAT_ID":65425,"ELEMENT_SET_NO":999,"REV_AT_EPOCH":2938,"BSTAR":0.00064002122,"MEAN_MOTION_DOT":0.0001864,"MEAN_MOTION_DDOT":0}]
