TRANSPORTER-10 OBJECT AD
1 59125U 24043AD  26068.86032889  .00011954  00000+0  36311-3 0  9997
2 59125  97.5470 207.3753 0008984 221.4908 138.5653 15.34189901112026
STARLINK-35095          
1 65425U 25192X   26068.72130200  .00018640  00000+0  64002-3 0  9991
2 65425  53.1604 232.5852 0001534  53.4734 306.6408 15.30192772 29385
